{"type": "FeatureCollection", "features": [{"type": "Feature", "properties": {"norad_id": 25590, "name": "COSMOS 2361", "group": "musson", "lat": 38.27782966081741, "lon": -15.962796301729536, "alt_km": 1005.3281749197013, "timestamp": "2025-12-20T09:36:01.915224+00:00", "meta": {"OBJECT_NAME": "COSMOS 2361", "OBJECT_ID": "1998-076A", "EPOCH": "2025-12-20T00:58:40.145952", "MEAN_MOTION": 13.73218347, "ECCENTRICITY": 0.0030158, "INCLINATION": 82.9341, "RA_OF_ASC_NODE": 338.6861, "ARG_OF_PERICENTER": 244.4261, "MEAN_ANOMALY": 179.0075, "EPHEMERIS_TYPE": 0, "CLASSIFICATION_TYPE": "U", "NORAD_CAT_ID": 25590, "ELEMENT_SET_NO": 999, "REV_AT_EPOCH": 35211, "BSTAR": 3.9175e-05, "MEAN_MOTION_DOT": 5.1e-07, "MEAN_MOTION_DDOT": 0}, "tle": {"line1": "1 25590U 98076A   25354.04074243  .00000051  00000+0  39175-4 0  9998", "line2": "2 25590  82.9341 338.6861 0030158 244.4261 179.0075 13.73218347352115"}}, "geometry": {"type": "Point", "coordinates": [-15.962796301729536, 38.27782966081741]}}, {"type": "Feature", "properties": {"norad_id": 26818, "name": "COSMOS 2378", "group": "musson", "lat": 43.128458932212496, "lon": 167.36632182347145, "alt_km": 964.5935732716753, "timestamp": "2025-12-20T09:36:01.915246+00:00", "meta": {"OBJECT_NAME": "COSMOS 2378", "OBJECT_ID": "2001-023A", "EPOCH": "2025-12-19T10:45:28.864800", "MEAN_MOTION": 13.74142545, "ECCENTRICITY": 0.0032813, "INCLINATION": 82.927, "RA_OF_ASC_NODE": 354.7502, "ARG_OF_PERICENTER": 186.0025, "MEAN_ANOMALY": 284.9718, "EPHEMERIS_TYPE": 0, "CLASSIFICATION_TYPE": "U", "NORAD_CAT_ID": 26818, "ELEMENT_SET_NO": 999, "REV_AT_EPOCH": 23015, "BSTAR": 3.5693e-05, "MEAN_MOTION_DOT": 4.9e-07, "MEAN_MOTION_DDOT": 0}, "tle": {"line1": "1 26818U 01023A   25353.44825075  .00000049  00000+0  35693-4 0  9996", "line2": "2 26818  82.9270 354.7502 0032813 186.0025 284.9718 13.74142545230156"}}, "geometry": {"type": "Point", "coordinates": [167.36632182347145, 43.128458932212496]}}, {"type": "Feature", "properties": {"norad_id": 27436, "name": "COSMOS 2389", "group": "musson", "lat": 10.998637918229516, "lon": -57.30802152504623, "alt_km": 951.852644958567, "timestamp": "2025-12-20T09:36:01.915258+00:00", "meta": {"OBJECT_NAME": "COSMOS 2389", "OBJECT_ID": "2002-026A", "EPOCH": "2025-12-19T21:35:03.860736", "MEAN_MOTION": 13.75155415, "ECCENTRICITY": 0.00473688, "INCLINATION": 82.9508, "RA_OF_ASC_NODE": 301.6845, "ARG_OF_PERICENTER": 41.2545, "MEAN_ANOMALY": 12.9914, "EPHEMERIS_TYPE": 0, "CLASSIFICATION_TYPE": "U", "NORAD_CAT_ID": 27436, "ELEMENT_SET_NO": 999, "REV_AT_EPOCH": 18247, "BSTAR": 3.2199124e-05, "MEAN_MOTION_DOT": 4.6e-07, "MEAN_MOTION_DDOT": 0}, "tle": {"line1": "1 27436U 02026A   25353.89935024  .00000046  00000+0  32199-4 0  9997", "line2": "2 27436  82.9508 301.6845 0047368  41.2545  12.9914 13.75155415182477"}}, "geometry": {"type": "Point", "coordinates": [-57.30802152504623, 10.998637918229516]}}, {"type": "Feature", "properties": {"norad_id": 27818, "name": "COSMOS 2398", "group": "musson", "lat": -67.00877174952475, "lon": 104.01438938980552, "alt_km": 1020.4213998240366, "timestamp": "2025-12-20T09:36:01.915269+00:00", "meta": {"OBJECT_NAME": "COSMOS 2398", "OBJECT_ID": "2003-023A", "EPOCH": "2025-12-19T20:27:55.410624", "MEAN_MOTION": 13.72386446, "ECCENTRICITY": 0.00327313, "INCLINATION": 82.9484, "RA_OF_ASC_NODE": 267.4568, "ARG_OF_PERICENTER": 92.8147, "MEAN_ANOMALY": 332.5988, "EPHEMERIS_TYPE": 0, "CLASSIFICATION_TYPE": "U", "NORAD_CAT_ID": 27818, "ELEMENT_SET_NO": 999, "REV_AT_EPOCH": 12914, "BSTAR": 5.2249183e-05, "MEAN_MOTION_DOT": 6.3e-07, "MEAN_MOTION_DDOT": 0}, "tle": {"line1": "1 27818U 03023A   25353.85272466  .00000063  00000+0  52249-4 0  9996", "line2": "2 27818  82.9484 267.4568 0032731  92.8147 332.5988 13.72386446129147"}}, "geometry": {"type": "Point", "coordinates": [104.01438938980552, -67.00877174952475]}}, {"type": "Feature", "properties": {"norad_id": 28380, "name": "COSMOS 2407", "group": "musson", "lat": -11.963830204366495, "lon": 28.721412415740772, "alt_km": 1008.5875935164859, "timestamp": "2025-12-20T09:36:01.915280+00:00", "meta": {"OBJECT_NAME": "COSMOS 2407", "OBJECT_ID": "2004-028A", "EPOCH": "2025-12-19T20:30:35.407872", "MEAN_MOTION": 13.76314495, "ECCENTRICITY": 0.00400108, "INCLINATION": 82.9599, "RA_OF_ASC_NODE": 207.6249, "ARG_OF_PERICENTER": 35.4572, "MEAN_ANOMALY": 335.2999, "EPHEMERIS_TYPE": 0, "CLASSIFICATION_TYPE": "U", "NORAD_CAT_ID": 28380, "ELEMENT_SET_NO": 999, "REV_AT_EPOCH": 7521, "BSTAR": 6.1812249e-05, "MEAN_MOTION_DOT": 7.6e-07, "MEAN_MOTION_DDOT": 0}, "tle": {"line1": "1 28380U 04028A   25353.85457648  .00000076  00000+0  61812-4 0  9994", "line2": "2 28380  82.9599 207.6249 0040010  35.4572 335.2999 13.76314495 75214"}}, "geometry": {"type": "Point", "coordinates": [28.721412415740772, -11.963830204366495]}}, {"type": "Feature", "properties": {"norad_id": 28521, "name": "COSMOS 2414", "group": "musson", "lat": 53.32091585468683, "lon": -171.5673669011644, "alt_km": 917.8098450878497, "timestamp": "2025-12-20T09:36:01.915291+00:00", "meta": {"OBJECT_NAME": "COSMOS 2414", "OBJECT_ID": "2005-002A", "EPOCH": "2025-12-19T21:13:48.405792", "MEAN_MOTION": 13.87903877, "ECCENTRICITY": 0.00412423, "INCLINATION": 82.9488, "RA_OF_ASC_NODE": 179.257, "ARG_OF_PERICENTER": 119.7952, "MEAN_ANOMALY": 240.7322, "EPHEMERIS_TYPE": 0, "CLASSIFICATION_TYPE": "U", "NORAD_CAT_ID": 28521, "ELEMENT_SET_NO": 999, "REV_AT_EPOCH": 5894, "BSTAR": 4.4947438e-05, "MEAN_MOTION_DOT": 7e-07, "MEAN_MOTION_DDOT": 0}, "tle": {"line1": "1 28521U 05002A   25353.88458803  .00000070  00000+0  44947-4 0  9995", "line2": "2 28521  82.9488 179.2570 0041242 119.7952 240.7322 13.87903877 58946"}}, "geometry": {"type": "Point", "coordinates": [-171.5673669011644, 53.32091585468683]}}, {"type": "Feature", "properties": {"norad_id": 32052, "name": "COSMOS 2429", "group": "musson", "lat": -17.126106489250862, "lon": 159.8371963177002, "alt_km": 1014.5660868249515, "timestamp": "2025-12-20T09:36:01.915301+00:00", "meta": {"OBJECT_NAME": "COSMOS 2429", "OBJECT_ID": "2007-038A", "EPOCH": "2025-12-19T22:10:04.648224", "MEAN_MOTION": 13.75150119, "ECCENTRICITY": 0.00388312, "INCLINATION": 82.9805, "RA_OF_ASC_NODE": 338.0125, "ARG_OF_PERICENTER": 18.16, "MEAN_ANOMALY": 342.0932, "EPHEMERIS_TYPE": 0, "CLASSIFICATION_TYPE": "U", "NORAD_CAT_ID": 32052, "ELEMENT_SET_NO": 999, "REV_AT_EPOCH": 91701, "BSTAR": 3.813189e-05, "MEAN_MOTION_DOT": 5.2e-07, "MEAN_MOTION_DDOT": 0}, "tle": {"line1": "1 32052U 07038A   25353.92366491  .00000052  00000+0  38132-4 0  9995", "line2": "2 32052  82.9805 338.0125 0038831  18.1600 342.0932 13.75150119917011"}}, "geometry": {"type": "Point", "coordinates": [159.8371963177002, -17.126106489250862]}}, {"type": "Feature", "properties": {"norad_id": 35635, "name": "COSMOS 2454", "group": "musson", "lat": 19.132941682016714, "lon": -19.62059117930264, "alt_km": 933.4313647589097, "timestamp": "2025-12-20T09:36:01.915312+00:00", "meta": {"OBJECT_NAME": "COSMOS 2454", "OBJECT_ID": "2009-039A", "EPOCH": "2025-12-20T00:46:45.983424", "MEAN_MOTION": 13.89929547, "ECCENTRICITY": 0.0020238, "INCLINATION": 82.9556, "RA_OF_ASC_NODE": 163.1166, "ARG_OF_PERICENTER": 54.2109, "MEAN_ANOMALY": 68.1245, "EPHEMERIS_TYPE": 0, "CLASSIFICATION_TYPE": "U", "NORAD_CAT_ID": 35635, "ELEMENT_SET_NO": 999, "REV_AT_EPOCH": 83251, "BSTAR": 3.6626e-05, "MEAN_MOTION_DOT": 6.1e-07, "MEAN_MOTION_DDOT": 0}, "tle": {"line1": "1 35635U 09039A   25354.03247666  .00000061  00000+0  36626-4 0  9999", "line2": "2 35635  82.9556 163.1166 0020238  54.2109  68.1245 13.89929547832511"}}, "geometry": {"type": "Point", "coordinates": [-19.62059117930264, 19.132941682016714]}}, {"type": "Feature", "properties": {"norad_id": 36519, "name": "COSMOS 2463", "group": "musson", "lat": 56.65733827007036, "lon": 31.907459558584577, "alt_km": 1010.6780200104213, "timestamp": "2025-12-20T09:36:01.915322+00:00", "meta": {"OBJECT_NAME": "COSMOS 2463", "OBJECT_ID": "2010-017A", "EPOCH": "2025-12-20T04:24:02.126016", "MEAN_MOTION": 13.71649756, "ECCENTRICITY": 0.0034738, "INCLINATION": 82.9605, "RA_OF_ASC_NODE": 21.2424, "ARG_OF_PERICENTER": 266.6189, "MEAN_ANOMALY": 161.2989, "EPHEMERIS_TYPE": 0, "CLASSIFICATION_TYPE": "U", "NORAD_CAT_ID": 36519, "ELEMENT_SET_NO": 999, "REV_AT_EPOCH": 78339, "BSTAR": 4.3115e-05, "MEAN_MOTION_DOT": 5.4e-07, "MEAN_MOTION_DDOT": 0}, "tle": {"line1": "1 36519U 10017A   25354.18335794  .00000054  00000+0  43115-4 0  9998", "line2": "2 36519  82.9605  21.2424 0034738 266.6189 161.2989 13.71649756783399"}}, "geometry": {"type": "Point", "coordinates": [31.907459558584577, 56.65733827007036]}}]}